---
title: "Learjet 35A fatally crashes during approach at Gillespie, San Diego, CA"
image: "https:\/\/i.ytimg.com\/vi\/lIjMCPKULMM\/hqdefault.jpg"
vid_id: "lIjMCPKULMM"
categories: "Travel-Events"
tags: ["REAL","ATC","FUNNY"]
date: "2021-12-31T11:23:23+03:00"
vid_date: "2021-12-28T19:50:52Z"
duration: "PT1M37S"
viewcount: "142033"
likeCount: "2674"
dislikeCount: ""
channel: "VASAviation -"
---
{% raw %}KSEE 280255Z VRB05KT 3SM BR BKN020 OVC026 10/08 A2998{% endraw %}
